[{"COMMENT":"GENERATED VIA SPACETRACK.ORG API","ORIGINATOR":"18 SPCS","NORAD_CAT_ID":"43477","OBJECT_NAME":"GRACE-FO 2","OBJECT_TYPE":"PAYLOAD","CLASSIFICATION_TYPE":"U","INTLDES":"18047B","EPOCH":"2023-11-16 19:22:57","EPOCH_MICROSECONDS":"577440","MEAN_MOTION":"15.27343294","ECCENTRICITY":"0.0014478","INCLINATION":"88.9812","RA_OF_ASC_NODE":"328.4121","ARG_OF_PERICENTER":"158.1823","MEAN_ANOMALY":"202.0046","EPHEMERIS_TYPE":"0","ELEMENT_SET_NO":"999","REV_AT_EPOCH":"30528","BSTAR":"0.00011232","MEAN_MOTION_DOT":"0.00003044","MEAN_MOTION_DDOT":"0","FILE":"4092440","TLE_LINE0":"0 GRACE-FO 2","TLE_LINE1":"1 43477U 18047B   23320.80761085  .00003044  00000-0  11232-3 0  9993","TLE_LINE2":"2 43477  88.9812 328.4121 0014478 158.1823 202.0046 15.27343294305288","OBJECT_ID":"2018-047B","OBJECT_NUMBER":"43477","SEMIMAJOR_AXIS":"6861.895","PERIOD":"94.281","APOGEE":"493.695","PERIGEE":"473.825","DECAYED":"0"},{"COMMENT":"GENERATED VIA SPACETRACK.ORG API","ORIGINATOR":"18 SPCS","NORAD_CAT_ID":"43477","OBJECT_NAME":"GRACE-FO 2","OBJECT_TYPE":"PAYLOAD","CLASSIFICATION_TYPE":"U","INTLDES":"18047B","EPOCH":"2023-11-16 20:57:18","EPOCH_MICROSECONDS":"425952","MEAN_MOTION":"15.27343848","ECCENTRICITY":"0.0014487","INCLINATION":"88.9812","RA_OF_ASC_NODE":"328.4031","ARG_OF_PERICENTER":"157.9511","MEAN_ANOMALY":"202.2365","EPHEMERIS_TYPE":"0","ELEMENT_SET_NO":"999","REV_AT_EPOCH":"30529","BSTAR":"0.00011445","MEAN_MOTION_DOT":"0.00003101","MEAN_MOTION_DDOT":"0","FILE":"4092721","TLE_LINE0":"0 GRACE-FO 2","TLE_LINE1":"1 43477U 18047B   23320.87312993  .00003101  00000-0  11445-3 0  9990","TLE_LINE2":"2 43477  88.9812 328.4031 0014487 157.9511 202.2365 15.27343848305291","OBJECT_ID":"2018-047B","OBJECT_NUMBER":"43477","SEMIMAJOR_AXIS":"6861.893","PERIOD":"94.281","APOGEE":"493.699","PERIGEE":"473.817","DECAYED":"0"},{"COMMENT":"GENERATED VIA SPACETRACK.ORG API","ORIGINATOR":"18 SPCS","NORAD_CAT_ID":"43477","OBJECT_NAME":"GRACE-FO 2","OBJECT_TYPE":"PAYLOAD","CLASSIFICATION_TYPE":"U","INTLDES":"18047B","EPOCH":"2023-11-17 14:15:07","EPOCH_MICROSECONDS":"745760","MEAN_MOTION":"15.27347278","ECCENTRICITY":"0.0014628","INCLINATION":"88.9813","RA_OF_ASC_NODE":"328.3042","ARG_OF_PERICENTER":"155.3747","MEAN_ANOMALY":"204.8204","EPHEMERIS_TYPE":"0","ELEMENT_SET_NO":"999","REV_AT_EPOCH":"30540","BSTAR":"0.00010345","MEAN_MOTION_DOT":"0.00002807","MEAN_MOTION_DDOT":"0","FILE":"4093899","TLE_LINE0":"0 GRACE-FO 2","TLE_LINE1":"1 43477U 18047B   23321.59383965  .00002807  00000-0  10345-3 0  9997","TLE_LINE2":"2 43477  88.9813 328.3042 0014628 155.3747 204.8204 15.27347278305407","OBJECT_ID":"2018-047B","OBJECT_NUMBER":"43477","SEMIMAJOR_AXIS":"6861.883","PERIOD":"94.281","APOGEE":"493.786","PERIGEE":"473.710","DECAYED":"0"},{"COMMENT":"GENERATED VIA SPACETRACK.ORG API","ORIGINATOR":"18 SPCS","NORAD_CAT_ID":"43477","OBJECT_NAME":"GRACE-FO 2","OBJECT_TYPE":"PAYLOAD","CLASSIFICATION_TYPE":"U","INTLDES":"18047B","EPOCH":"2023-11-17 22:06:51","EPOCH_MICROSECONDS":"914880","MEAN_MOTION":"15.27349025","ECCENTRICITY":"0.0014678","INCLINATION":"88.9814","RA_OF_ASC_NODE":"328.2594","ARG_OF_PERICENTER":"154.1976","MEAN_ANOMALY":"206.0009","EPHEMERIS_TYPE":"0","ELEMENT_SET_NO":"999","REV_AT_EPOCH":"30545","BSTAR":"0.000098467","MEAN_MOTION_DOT":"0.00002673","MEAN_MOTION_DDOT":"0","FILE":"4094359","TLE_LINE0":"0 GRACE-FO 2","TLE_LINE1":"1 43477U 18047B   23321.92143420  .00002673  00000-0  98467-4 0  9997","TLE_LINE2":"2 43477  88.9814 328.2594 0014678 154.1976 206.0009 15.27349025305459","OBJECT_ID":"2018-047B","OBJECT_NUMBER":"43477","SEMIMAJOR_AXIS":"6861.878","PERIOD":"94.281","APOGEE":"493.815","PERIGEE":"473.671","DECAYED":"0"},{"COMMENT":"GENERATED VIA SPACETRACK.ORG API","ORIGINATOR":"18 SPCS","NORAD_CAT_ID":"43477","OBJECT_NAME":"GRACE-FO 2","OBJECT_TYPE":"PAYLOAD","CLASSIFICATION_TYPE":"U","INTLDES":"18047B","EPOCH":"2023-11-18 02:49:54","EPOCH_MICROSECONDS":"406848","MEAN_MOTION":"15.27349998","ECCENTRICITY":"0.0014716","INCLINATION":"88.9814","RA_OF_ASC_NODE":"328.2324","ARG_OF_PERICENTER":"153.5085","MEAN_ANOMALY":"206.692","EPHEMERIS_TYPE":"0","ELEMENT_SET_NO":"999","REV_AT_EPOCH":"30548","BSTAR":"0.000096256","MEAN_MOTION_DOT":"0.00002614","MEAN_MOTION_DDOT":"0","FILE":"4094374","TLE_LINE0":"0 GRACE-FO 2","TLE_LINE1":"1 43477U 18047B   23322.11799082  .00002614  00000-0  96256-4 0  9999","TLE_LINE2":"2 43477  88.9814 328.2324 0014716 153.5085 206.6920 15.27349998305487","OBJECT_ID":"2018-047B","OBJECT_NUMBER":"43477","SEMIMAJOR_AXIS":"6861.875","PERIOD":"94.281","APOGEE":"493.838","PERIGEE":"473.642","DECAYED":"0"},{"COMMENT":"GENERATED VIA SPACETRACK.ORG API","ORIGINATOR":"18 SPCS","NORAD_CAT_ID":"43477","OBJECT_NAME":"GRACE-FO 2","OBJECT_TYPE":"PAYLOAD","CLASSIFICATION_TYPE":"U","INTLDES":"18047B","EPOCH":"2023-11-18 13:50:20","EPOCH_MICROSECONDS":"203008","MEAN_MOTION":"15.27352555","ECCENTRICITY":"0.0014804","INCLINATION":"88.9815","RA_OF_ASC_NODE":"328.1695","ARG_OF_PERICENTER":"151.9019","MEAN_ANOMALY":"208.3033","EPHEMERIS_TYPE":"0","ELEMENT_SET_NO":"999","REV_AT_EPOCH":"30555","BSTAR":"0.00010001","MEAN_MOTION_DOT":"0.00002715","MEAN_MOTION_DDOT":"0","FILE":"4095448","TLE_LINE0":"0 GRACE-FO 2","TLE_LINE1":"1 43477U 18047B   23322.57662272  .00002715  00000-0  10001-3 0  9994","TLE_LINE2":"2 43477  88.9815 328.1695 0014804 151.9019 208.3033 15.27352555305550","OBJECT_ID":"2018-047B","OBJECT_NUMBER":"43477","SEMIMAJOR_AXIS":"6861.867","PERIOD":"94.281","APOGEE":"493.891","PERIGEE":"473.574","DECAYED":"0"},{"COMMENT":"GENERATED VIA SPACETRACK.ORG API","ORIGINATOR":"18 SPCS","NORAD_CAT_ID":"43477","OBJECT_NAME":"GRACE-FO 2","OBJECT_TYPE":"PAYLOAD","CLASSIFICATION_TYPE":"U","INTLDES":"18047B","EPOCH":"2023-11-18 23:16:25","EPOCH_MICROSECONDS":"97088","MEAN_MOTION":"15.27353728","ECCENTRICITY":"0.0014871","INCLINATION":"88.9815","RA_OF_ASC_NODE":"328.1157","ARG_OF_PERICENTER":"150.5366","MEAN_ANOMALY":"209.6724","EPHEMERIS_TYPE":"0","ELEMENT_SET_NO":"999","REV_AT_EPOCH":"30561","BSTAR":"0.000088886","MEAN_MOTION_DOT":"0.00002417","MEAN_MOTION_DDOT":"0","FILE":"4095863","TLE_LINE0":"0 GRACE-FO 2","TLE_LINE1":"1 43477U 18047B   23322.96973492  .00002417  00000-0  88886-4 0  9992","TLE_LINE2":"2 43477  88.9815 328.1157 0014871 150.5366 209.6724 15.27353728305618","OBJECT_ID":"2018-047B","OBJECT_NUMBER":"43477","SEMIMAJOR_AXIS":"6861.864","PERIOD":"94.281","APOGEE":"493.933","PERIGEE":"473.524","DECAYED":"0"},{"COMMENT":"GENERATED VIA SPACETRACK.ORG API","ORIGINATOR":"18 SPCS","NORAD_CAT_ID":"43477","OBJECT_NAME":"GRACE-FO 2","OBJECT_TYPE":"PAYLOAD","CLASSIFICATION_TYPE":"U","INTLDES":"18047B","EPOCH":"2023-11-19 03:59:27","EPOCH_MICROSECONDS":"536352","MEAN_MOTION":"15.27354638","ECCENTRICITY":"0.0014907","INCLINATION":"88.9815","RA_OF_ASC_NODE":"328.0888","ARG_OF_PERICENTER":"149.8533","MEAN_ANOMALY":"210.3577","EPHEMERIS_TYPE":"0","ELEMENT_SET_NO":"999","REV_AT_EPOCH":"30564","BSTAR":"0.000088689","MEAN_MOTION_DOT":"0.00002412","MEAN_MOTION_DDOT":"0","FILE":"4095915","TLE_LINE0":"0 GRACE-FO 2","TLE_LINE1":"1 43477U 18047B   23323.16629093  .00002412  00000-0  88689-4 0  9996","TLE_LINE2":"2 43477  88.9815 328.0888 0014907 149.8533 210.3577 15.27354638305644","OBJECT_ID":"2018-047B","OBJECT_NUMBER":"43477","SEMIMAJOR_AXIS":"6861.861","PERIOD":"94.281","APOGEE":"493.955","PERIGEE":"473.497","DECAYED":"0"},{"COMMENT":"GENERATED VIA SPACETRACK.ORG API","ORIGINATOR":"18 SPCS","NORAD_CAT_ID":"43477","OBJECT_NAME":"GRACE-FO 2","OBJECT_TYPE":"PAYLOAD","CLASSIFICATION_TYPE":"U","INTLDES":"18047B","EPOCH":"2023-11-19 13:25:32","EPOCH_MICROSECONDS":"382048","MEAN_MOTION":"15.27357637","ECCENTRICITY":"0.0014974","INCLINATION":"88.9815","RA_OF_ASC_NODE":"328.0349","ARG_OF_PERICENTER":"148.5056","MEAN_ANOMALY":"211.7093","EPHEMERIS_TYPE":"0","ELEMENT_SET_NO":"999","REV_AT_EPOCH":"30570","BSTAR":"0.00010144","MEAN_MOTION_DOT":"0.00002754","MEAN_MOTION_DDOT":"0","FILE":"4096886","TLE_LINE0":"0 GRACE-FO 2","TLE_LINE1":"1 43477U 18047B   23323.55940257  .00002754  00000-0  10144-3 0  9996","TLE_LINE2":"2 43477  88.9815 328.0349 0014974 148.5056 211.7093 15.27357637305703","OBJECT_ID":"2018-047B","OBJECT_NUMBER":"43477","SEMIMAJOR_AXIS":"6861.852","PERIOD":"94.280","APOGEE":"493.992","PERIGEE":"473.442","DECAYED":"0"},{"COMMENT":"GENERATED VIA SPACETRACK.ORG API","ORIGINATOR":"18 SPCS","NORAD_CAT_ID":"43477","OBJECT_NAME":"GRACE-FO 2","OBJECT_TYPE":"PAYLOAD","CLASSIFICATION_TYPE":"U","INTLDES":"18047B","EPOCH":"2023-11-19 22:51:37","EPOCH_MICROSECONDS":"173312","MEAN_MOTION":"15.27358611","ECCENTRICITY":"0.0015043","INCLINATION":"88.9815","RA_OF_ASC_NODE":"327.9811","ARG_OF_PERICENTER":"147.1794","MEAN_ANOMALY":"213.0393","EPHEMERIS_TYPE":"0","ELEMENT_SET_NO":"999","REV_AT_EPOCH":"30576","BSTAR":"0.000090101","MEAN_MOTION_DOT":"0.0000245","MEAN_MOTION_DDOT":"0","FILE":"4097440","TLE_LINE0":"0 GRACE-FO 2","TLE_LINE1":"1 43477U 18047B   23323.95251358  .00002450  00000-0  90101-4 0  9992","TLE_LINE2":"2 43477  88.9815 327.9811 0015043 147.1794 213.0393 15.27358611305764","OBJECT_ID":"2018-047B","OBJECT_NUMBER":"43477","SEMIMAJOR_AXIS":"6861.849","PERIOD":"94.280","APOGEE":"494.036","PERIGEE":"473.392","DECAYED":"0"}]